XW-3 (CAS-9)            
1 50466U 21131B   24301.85365811  .00002930  00000+0  94121-3 0  9999
2 50466  98.5232  26.3033 0005232  92.2000 267.9787 14.40145902149093
GREENCUBE               
1 53106U 22080B   24281.96479996 -.00000003  00000+0  00000+0 0  9995
2 53106  70.1376 153.3488 0008243  81.8360 278.3235  6.42557544 52511
CAS-5A (FO-118)         
1 54684U 22167C   24301.86563323  .00126158  00000+0  25302-2 0  9997
2 54684  97.6156  91.2396 0006846  23.7073 336.4490 15.46208528104677
STRATOSAT-TK 1 (RS52S)  
1 57167U 23091B   24301.85776397  .00055771  00000+0  25553-2 0  9999
2 57167  97.5938 355.0743 0013397  26.6780 333.5141 15.20188557 73651
UMKA 1 (RS40S)          
1 57172U 23091G   24301.83700713  .00018671  00000+0  11324-2 0  9991
2 57172  97.5953 352.6597 0016560  32.8801 327.3455 15.10478219 73499
CUBESX-HSE 3 (RS42S)    
1 57178U 23091N   24301.82596037  .00028415  00000+0  15985-2 0  9992
2 57178  97.5991 353.5177 0016398  26.2516 333.9543 15.13105178 73530
MONITOR-4 (RS57S)       
1 57182U 23091S   24301.86686815  .00025984  00000+0  14953-2 0  9997
2 57182  97.5977 353.2357 0016976  28.0913 332.1230 15.12301350 73521
MONITOR-2 (RS39S)       
1 57184U 23091U   24301.80651418  .00017161  00000+0  10507-2 0  9993
2 57184  97.5988 353.0448 0014120  24.7354 335.4549 15.10184389 73501
SVYATOBOR 1 (RS60S)     
1 57187U 23091X   24301.85524524  .00022620  00000+0  12885-2 0  9995
2 57187  97.5984 353.9086 0013054  19.9357 340.2381 15.12748263 73564
VIZARD-METEO (RS38S)    
1 57189U 23091Z   24301.85421559  .00029562  00000+0  15769-2 0  9997
2 57189  97.5974 354.6289 0011653  17.1163 343.0459 15.15051187 73614
NANOZOND 1 (RS49S)      
1 57190U 23091AA  24301.81908312  .00048116  00000+0  22283-2 0  9997
2 57190  97.5948 355.7380 0009731  20.4328 339.7294 15.19899239 73694
POLYTECH-UNIVERSE 3 (R*)
1 57191U 23091AB  24301.81341715  .00016724  00000+0  10214-2 0  9997
2 57191  97.5955 352.6734 0019608  38.8303 321.4331 15.10203080 73494
UTMN 2 (RS27S)          
1 57203U 23091AP  24301.83455499  .00028013  00000+0  15299-2 0  9990
2 57203  97.5978 354.3442 0012118  17.6726 342.4924 15.14219768 73597
ARCCUBE 1 (RS25S)       
1 57205U 23091AR  24301.84905815  .00059729  00000+0  25629-2 0  9991
2 57205  97.5902 356.1553 0009450  19.1350 341.0239 15.22454068 73737
KUZGTU 1 (RS47S)        
1 57217U 23091AV  24301.85182326  .00026990  00000+0  15306-2 0  9994
2 57217  97.5963 353.3263 0016366  27.7234 332.4866 15.12828065 73533
HADES-D (SO-121)        
1 58567U 23174CY  24301.18111282  .01061184  00000+0  52751-2 0  9994
2 58567  97.4269  20.0723 0002916 261.8329  98.2607 15.79582242 54155
SONATE-2                
1 59112U 24043Q   24301.34547467  .00036747  00000+0  15043-2 0  9992
2 59112  97.4921  64.3188 0013338 189.6037 170.4947 15.24135903 35894
MESAT1                  
1 60209U 24125G   24301.52123297  .00033491  00000+0  13652-2 0  9990
2 60209  97.3049 151.1372 0022810 216.6380 143.3299 15.24137839 17530
OOV-CUBE (TUBSAT-30)    
1 60240U 24128F   24301.54732422  .00007965  00000+0  68916-3 0  9997
2 60240  61.9969 142.5676 0021063 350.6602   9.4092 14.97707542 16422
CUTE-1 (CO-55)          
1 27844U 03031E   24301.45370025  .00001405  00000+0  63596-3 0  9999
2 27844  98.6795 306.6822 0010710 117.5344 242.6924 14.23576766106601
CUBESAT XI-IV (CO-57)   
1 27848U 03031J   24301.51194818  .00001285  00000+0  58975-3 0  9995
2 27848  98.6825 306.9055 0010402 132.3830 227.8230 14.22974234106351
CUBESAT XI-V            
1 28895U 05043F   24301.64991922  .00007813  00000+0  13365-2 0  9994
2 28895  98.2196  77.9231 0014317 300.4590  59.5200 14.69058283 13893
CUTE-1.7+APD II (CO-65) 
1 32785U 08021C   24301.87650123  .00018862  00000+0  15287-2 0  9997
2 32785  97.7743 266.4579 0007999 244.8595 115.1799 14.99717289895411
AAUSAT-II               
1 32788U 08021F   24301.41924340  .00090319  00000+0  31089-2 0  9990
2 32788  97.6039 283.1030 0008801  78.2030 282.0196 15.29652759898440
CANX-2                  
1 32790U 08021H   24301.88919942  .00015465  00000+0  13199-2 0  9997
2 32790  97.7831 265.0791 0009876 252.2366 107.7778 14.97750085895212
SEEDS II (CO-66)        
1 32791U 08021J   24301.35575123  .00032503  00000+0  20557-2 0  9997
2 32791  97.7047 272.3101 0003403 184.8081 175.3115 15.08934570896417
SWISSCUBE               
1 35932U 09051B   24301.68650016  .00006035  00000+0  12666-2 0  9995
2 35932  98.4503 187.5803 0005731 272.4693  87.5850 14.60002943801926
BEESAT-1                
1 35933U 09051C   24301.24049581  .00004554  00000+0  96705-3 0  9998
2 35933  98.4431 187.8527 0004246 292.0703  68.0045 14.59604677801888
ITUPSAT1                
1 35935U 09051E   24301.62656110  .00004408  00000+0  95894-3 0  9990
2 35935  98.4530 187.9539 0006617 295.8437  64.2079 14.58497925801568
TISAT 1                 
1 36799U 10035E   24301.42938014  .00030707  00000+0  20330-2 0  9990
2 36799  98.0708 196.8628 0005546 120.6092 239.5681 15.07256199776940
AEROCUBE 4.5A           
1 38767U 12048K   24301.56393017  .00054548  00000+0  23140-2 0  9997
2 38767  64.6556 246.6300 0111602 335.7831  23.8068 15.17227790280498
AEROCUBE 4.5B           
1 38768U 12048L   24301.87868883  .00137241  00000+0  27245-2 0  9992
2 38768  64.6479 158.2287 0074758 320.6923  38.8800 15.43273754281750
STRAND-1                
1 39090U 13009E   24300.94887540  .00001291  00000+0  45534-3 0  9994
2 39090  98.3796 125.6479 0008171 213.4596 146.6075 14.36387186611156
BRITE-AUSTRIA           
1 39091U 13009F   24301.58063462  .00001089  00000+0  38926-3 0  9997
2 39091  98.3844 125.5379 0009535 220.1213 139.9270 14.36021557611266
NEE-01 PEGASO           
1 39151U 13018B   24301.80766066  .00012822  00000+0  14068-2 0  9996
2 39151  98.0494  60.4874 0013680 329.8247  30.2180 14.87772174621682
ESTCUBE 1               
1 39161U 13021C   24301.71701456  .00009122  00000+0  12758-2 0  9996
2 39161  97.8140   4.1509 0009414 153.6039 206.5653 14.77773401616691
POPACS 1                
1 39268U 13055D   24301.43730191  .00080600  39750-6  11586-2 0  9997
2 39268  80.9775 357.8141 0349829  22.8789 338.7591 15.08223396580352
POPACS 2                
1 39269U 13055E   24301.42894153  .00027495  00000+0  60938-3 0  9994
2 39269  80.9967  95.1713 0524789 277.7844  76.4104 14.63199182574899
POPACS 3                
1 39270U 13055F   24301.86309098  .00020295  00000+0  53564-3 0  9991
2 39270  81.0051 149.9890 0612738  71.0170 295.6362 14.41006690572740
ZACUBE-1 (TSHEPISOSAT)  
1 39417U 13066B   24301.84561400  .00017025  00000+0  16401-2 0  9996
2 39417  97.7501 255.1699 0050562  81.0828 279.6110 14.92026973591348
WNISAT-1                
1 39423U 13066H   24301.48521665  .00003558  00000+0  67853-3 0  9996
2 39423  97.6668 125.1449 0167323 314.0206  44.7305 14.55973531579680
TRITON-1                
1 39427U 13066M   24301.81373168  .00015802  00000+0  21142-2 0  9995
2 39427  97.8369 215.6396 0100405  15.6363 344.7909 14.76047424585952
DELFI-N3XT              
1 39428U 13066N   24301.53157720  .00027004  00000+0  31423-2 0  9999
2 39428  97.8331 216.6335 0096321  19.9430 340.5507 14.81918827585665
GOMX-1                  
1 39430U 13066Q   24301.57193612  .00007709  00000+0  12437-2 0  9990
2 39430  97.7097 167.9116 0136288 190.8681 168.9572 14.65618835582428
CUBEBUG-2 (LO-74)       
1 39440U 13066AA  24301.42974342  .00013001  00000+0  14374-2 0  9996
2 39440  97.8231 242.5101 0065757 199.6375 160.2307 14.85929697587950
NEE-02 KRYSAOR          
1 39441U 13066AB  24301.80895736  .00008594  00000+0  10463-2 0  9994
2 39441  97.8320 238.1733 0070560 223.3788 136.1859 14.81879230588726
FUNCUBE-1 (AO-73)       
1 39444U 13066AE  24301.31730589  .00024776  00000+0  21712-2 0  9996
2 39444  97.7355 258.1840 0047736  62.0344 298.5697 14.95760716589831
UWE-3                   
1 39446U 13066AG  24301.39110862  .00014035  00000+0  14599-2 0  9994
2 39446  97.7947 248.6027 0058644 142.5331 217.9996 14.88688895588353
BRITE-CA1 (TORONTO)     
1 40020U 14033L   24301.83815278  .00004666  00000+0  74017-3 0  9992
2 40020  97.8962  74.5127 0082360  29.2592 331.3190 14.70355181554462
DUCHIFAT-1              
1 40021U 14033M   24301.41987977  .00045574  00000+0  24943-2 0  9998
2 40021  98.0998 292.7099 0012904  25.8602 334.3270 15.14018587564084
NANOSATC-BR1            
1 40024U 14033Q   24301.46971203  .00030781  00000+0  19684-2 0  9991
2 40024  98.0777 279.6178 0008896  84.0795 276.1445 15.08517141563156
QB50P1                  
1 40025U 14033R   24301.37727834  .00023930  00000+0  17469-2 0  9998
2 40025  98.0597 266.9317 0014808  93.3314 266.9605 15.03588064562714
QB50P2                  
1 40032U 14033Y   24301.60259070  .00022514  00000+0  17124-2 0  9999
2 40032  98.0173 257.9209 0012315  52.0250 308.2084 15.02075389562524
PERSEUS-M2              
1 40037U 14033AD  24301.83460724  .00009112  00000+0  90709-3 0  9999
2 40037  97.9332 233.2254 0014533 113.7480 246.5264 14.91779630562098
PERSEUS-M1              
1 40039U 14033AF  24301.74269194  .00008341  00000+0  83412-3 0  9995
2 40039  97.9105 228.7984 0014211 113.4100 246.8614 14.91628557561942
POLYITAN-1              
1 40042U 14033AJ  24301.47698391  .00036413  00000+0  23561-2 0  9993
2 40042  98.0845 271.7638 0014448  54.0235 306.2329 15.07988923562730
TIGRISAT                
1 40043U 14033AK  24301.41690737  .00010205  00000+0  13069-2 0  9997
2 40043  97.7095  98.6842 0053070 231.7278 127.9154 14.80498668557013
AEROCUBE 6A             
1 40045U 14033AM  24301.47417885  .00022714  00000+0  24987-2 0  9995
2 40045  97.6770 110.0758 0047271 205.6879 154.1989 14.86766782557426
